EUTELSAT 9B             
1 41310U 16005A   26065.79727671  .00000058  00000+0  00000+0 0  9997
2 41310   0.0309  63.6285 0004431 262.5642 134.3227  1.00270538 37099
EUTELSAT 65 WEST A      
1 41382U 16014A   26065.78262998 -.00000280  00000+0  00000+0 0  9999
2 41382   0.0750  44.5594 0002189 301.7620  34.7267  1.00271651 36508
EUTELSAT 117 WEST B     
1 41589U 16038B   26064.98792982 -.00000018  00000+0  00000+0 0  9995
2 41589   0.0104 328.8615 0000350 267.7539 165.7653  1.00273781 35622
EUTELSAT 172B           
1 42741U 17029B   26065.39697603 -.00000010  00000+0  00000+0 0  9999
2 42741   0.0214 148.9641 0000082 246.0144  84.0311  1.00272730 32713
EUTELSAT 7C             
1 44334U 19034B   26065.29773554  .00000043  00000+0  00000+0 0  9991
2 44334   0.0719 180.9895 0003228 153.0546 304.1198  1.00270230  5800
EUTELSAT 5 WEST B       
1 44624U 19067A   26065.79450338 -.00000046  00000+0  00000+0 0  9990
2 44624   0.0906 313.0550 0003219  44.2294  88.2197  1.00273147 23414
EUTELSAT KONNECT        
1 45027U 20005B   26065.36906252  .00000045  00000+0  00000+0 0  9994
2 45027   0.0683  97.6892 0001063 228.9919 337.4535  1.00271511 23304
EUTELSAT QUANTUM        
1 49056U 21069B   26064.44991411  .00000118  00000+0  00000+0 0  9991
2 49056   0.0432 315.3835 0002891  26.0728  31.3837  1.00272758 16888
EUTELSAT KONNECT VHTS   
1 53765U 22110A   26064.79770901  .00000010  00000+0  00000+0 0  9999
2 53765   0.0580 103.5481 0003315 222.3950 127.4443  1.00271589  5797
EUTELSAT HOTBIRD 13F    
1 54048U 22134A   26065.58416244  .00000083  00000+0  00000+0 0  9995
2 54048   0.0546 298.0592 0002096  66.6782  22.8476  1.00272751 12349
EUTELSAT HOTBIRD 13G    
1 54225U 22146A   26065.58416244  .00000083  00000+0  00000+0 0  9995
2 54225   0.0440 226.3521 0001925 310.0598 211.1770  1.00272420  6432
EUTELSAT 10B            
1 54259U 22157A   26065.79753673  .00000064  00000+0  00000+0 0  9996
2 54259   0.0575 102.1560 0001642   6.3934 353.0250  1.00268725 12009
EUTELSAT 36D            
1 59346U 24059A   26065.30328223  .00000151  00000+0  00000+0 0  9994
2 59346   0.0090 137.9739 0000214 238.0873 292.9861  1.00271244  7112
