[{"OBJECT_NAME":"EUTELSAT 9B","OBJECT_ID":"2016-005A","EPOCH":"2026-03-06T19:08:04.707744","MEAN_MOTION":1.00270538,"ECCENTRICITY":0.0004431,"INCLINATION":0.0309,"RA_OF_ASC_NODE":63.6285,"ARG_OF_PERICENTER":262.5642,"MEAN_ANOMALY":134.3227,"EPHEMERIS_TYPE":0,"CLASSIFICATION_TYPE":"U","NORAD_CAT_ID":41310,"ELEMENT_SET_NO":999,"REV_AT_EPOCH":3709,"BSTAR":0,"MEAN_MOTION_DOT":5.8e-7,"MEAN_MOTION_DDOT":0},{"OBJECT_NAME":"EUTELSAT 65 WEST A","OBJECT_ID":"2016-014A","EPOCH":"2026-03-06T18:46:59.230272","MEAN_MOTION":1.00271651,"ECCENTRICITY":0.0002189,"INCLINATION":0.075,"RA_OF_ASC_NODE":44.5594,"ARG_OF_PERICENTER":301.762,"MEAN_ANOMALY":34.7267,"EPHEMERIS_TYPE":0,"CLASSIFICATION_TYPE":"U","NORAD_CAT_ID":41382,"ELEMENT_SET_NO":999,"REV_AT_EPOCH":3650,"BSTAR":0,"MEAN_MOTION_DOT":-2.8e-6,"MEAN_MOTION_DDOT":0},{"OBJECT_NAME":"EUTELSAT 117 WEST B","OBJECT_ID":"2016-038B","EPOCH":"2026-03-05T23:42:37.136448","MEAN_MOTION":1.00273781,"ECCENTRICITY":3.503e-5,"INCLINATION":0.0104,"RA_OF_ASC_NODE":328.8615,"ARG_OF_PERICENTER":267.7539,"MEAN_ANOMALY":165.7653,"EPHEMERIS_TYPE":0,"CLASSIFICATION_TYPE":"U","NORAD_CAT_ID":41589,"ELEMENT_SET_NO":999,"REV_AT_EPOCH":3562,"BSTAR":0,"MEAN_MOTION_DOT":-1.8e-7,"MEAN_MOTION_DDOT":0},{"OBJECT_NAME":"EUTELSAT 172B","OBJECT_ID":"2017-029B","EPOCH":"2026-03-06T09:31:38.728992","MEAN_MOTION":1.0027273,"ECCENTRICITY":8.2e-6,"INCLINATION":0.0214,"RA_OF_ASC_NODE":148.9641,"ARG_OF_PERICENTER":246.0144,"MEAN_ANOMALY":84.0311,"EPHEMERIS_TYPE":0,"CLASSIFICATION_TYPE":"U","NORAD_CAT_ID":42741,"ELEMENT_SET_NO":999,"REV_AT_EPOCH":3271,"BSTAR":0,"MEAN_MOTION_DOT":-1.0e-7,"MEAN_MOTION_DDOT":0},{"OBJECT_NAME":"EUTELSAT 7C","OBJECT_ID":"2019-034B","EPOCH":"2026-03-06T07:08:44.350656","MEAN_MOTION":1.0027023,"ECCENTRICITY":0.00032282,"INCLINATION":0.0719,"RA_OF_ASC_NODE":180.9895,"ARG_OF_PERICENTER":153.0546,"MEAN_ANOMALY":304.1198,"EPHEMERIS_TYPE":0,"CLASSIFICATION_TYPE":"U","NORAD_CAT_ID":44334,"ELEMENT_SET_NO":999,"REV_AT_EPOCH":580,"BSTAR":0,"MEAN_MOTION_DOT":4.3e-7,"MEAN_MOTION_DDOT":0},{"OBJECT_NAME":"EUTELSAT 5 WEST B","OBJECT_ID":"2019-067A","EPOCH":"2026-03-06T19:04:05.092032","MEAN_MOTION":1.00273147,"ECCENTRICITY":0.0003219,"INCLINATION":0.0906,"RA_OF_ASC_NODE":313.055,"ARG_OF_PERICENTER":44.2294,"MEAN_ANOMALY":88.2197,"EPHEMERIS_TYPE":0,"CLASSIFICATION_TYPE":"U","NORAD_CAT_ID":44624,"ELEMENT_SET_NO":999,"REV_AT_EPOCH":2341,"BSTAR":0,"MEAN_MOTION_DOT":-4.6e-7,"MEAN_MOTION_DDOT":0},{"OBJECT_NAME":"EUTELSAT KONNECT","OBJECT_ID":"2020-005B","EPOCH":"2026-03-06T08:51:27.001728","MEAN_MOTION":1.00271511,"ECCENTRICITY":0.00010639,"INCLINATION":0.0683,"RA_OF_ASC_NODE":97.6892,"ARG_OF_PERICENTER":228.9919,"MEAN_ANOMALY":337.4535,"EPHEMERIS_TYPE":0,"CLASSIFICATION_TYPE":"U","NORAD_CAT_ID":45027,"ELEMENT_SET_NO":999,"REV_AT_EPOCH":2330,"BSTAR":0,"MEAN_MOTION_DOT":4.5e-7,"MEAN_MOTION_DDOT":0},{"OBJECT_NAME":"EUTELSAT QUANTUM","OBJECT_ID":"2021-069B","EPOCH":"2026-03-05T10:47:52.579104","MEAN_MOTION":1.00272758,"ECCENTRICITY":0.0002891,"INCLINATION":0.0432,"RA_OF_ASC_NODE":315.3835,"ARG_OF_PERICENTER":26.0728,"MEAN_ANOMALY":31.3837,"EPHEMERIS_TYPE":0,"CLASSIFICATION_TYPE":"U","NORAD_CAT_ID":49056,"ELEMENT_SET_NO":999,"REV_AT_EPOCH":1688,"BSTAR":0,"MEAN_MOTION_DOT":1.18e-6,"MEAN_MOTION_DDOT":0},{"OBJECT_NAME":"EUTELSAT KONNECT VHTS","OBJECT_ID":"2022-110A","EPOCH":"2026-03-05T19:08:42.058464","MEAN_MOTION":1.00271589,"ECCENTRICITY":0.00033156,"INCLINATION":0.058,"RA_OF_ASC_NODE":103.5481,"ARG_OF_PERICENTER":222.395,"MEAN_ANOMALY":127.4443,"EPHEMERIS_TYPE":0,"CLASSIFICATION_TYPE":"U","NORAD_CAT_ID":53765,"ELEMENT_SET_NO":999,"REV_AT_EPOCH":579,"BSTAR":0,"MEAN_MOTION_DOT":1.0e-7,"MEAN_MOTION_DDOT":0},{"OBJECT_NAME":"EUTELSAT HOTBIRD 13F","OBJECT_ID":"2022-134A","EPOCH":"2026-03-06T14:01:11.634816","MEAN_MOTION":1.00272751,"ECCENTRICITY":0.0002096,"INCLINATION":0.0546,"RA_OF_ASC_NODE":298.0592,"ARG_OF_PERICENTER":66.6782,"MEAN_ANOMALY":22.8476,"EPHEMERIS_TYPE":0,"CLASSIFICATION_TYPE":"U","NORAD_CAT_ID":54048,"ELEMENT_SET_NO":999,"REV_AT_EPOCH":1234,"BSTAR":0,"MEAN_MOTION_DOT":8.3e-7,"MEAN_MOTION_DDOT":0},{"OBJECT_NAME":"EUTELSAT HOTBIRD 13G","OBJECT_ID":"2022-146A","EPOCH":"2026-03-06T14:01:11.634816","MEAN_MOTION":1.0027242,"ECCENTRICITY":0.00019254,"INCLINATION":0.044,"RA_OF_ASC_NODE":226.3521,"ARG_OF_PERICENTER":310.0598,"MEAN_ANOMALY":211.177,"EPHEMERIS_TYPE":0,"CLASSIFICATION_TYPE":"U","NORAD_CAT_ID":54225,"ELEMENT_SET_NO":999,"REV_AT_EPOCH":643,"BSTAR":0,"MEAN_MOTION_DOT":8.3e-7,"MEAN_MOTION_DDOT":0},{"OBJECT_NAME":"EUTELSAT 10B","OBJECT_ID":"2022-157A","EPOCH":"2026-03-06T19:08:27.173472","MEAN_MOTION":1.00268725,"ECCENTRICITY":0.0001642,"INCLINATION":0.0575,"RA_OF_ASC_NODE":102.156,"ARG_OF_PERICENTER":6.3934,"MEAN_ANOMALY":353.025,"EPHEMERIS_TYPE":0,"CLASSIFICATION_TYPE":"U","NORAD_CAT_ID":54259,"ELEMENT_SET_NO":999,"REV_AT_EPOCH":1200,"BSTAR":0,"MEAN_MOTION_DOT":6.4e-7,"MEAN_MOTION_DDOT":0},{"OBJECT_NAME":"EUTELSAT 36D","OBJECT_ID":"2024-059A","EPOCH":"2026-03-06T07:16:43.584672","MEAN_MOTION":1.00271244,"ECCENTRICITY":2.147e-5,"INCLINATION":0.009,"RA_OF_ASC_NODE":137.9739,"ARG_OF_PERICENTER":238.0873,"MEAN_ANOMALY":292.9861,"EPHEMERIS_TYPE":0,"CLASSIFICATION_TYPE":"U","NORAD_CAT_ID":59346,"ELEMENT_SET_NO":999,"REV_AT_EPOCH":711,"BSTAR":0,"MEAN_MOTION_DOT":1.51e-6,"MEAN_MOTION_DDOT":0}]
